0 ARIANE 2 DEB
1 33558U 89006BA  13289.36244064 -.00000066  00000-0  00000+0 0  5683
2 33558 010.4971 022.3941 6948317 256.3699 036.2166 02.22072251 72317
0 ARIANE 2 DEB
1 33558U 89006BA  13290.24668000  .00000000  00000-0  10000-3 0  5707
2 33558 010.4794 022.1414 6946631 256.8935 023.1291 02.22070097 72329
0 ARIANE 2 DEB
1 33558U 89006BA  13290.67850546 -.00000101  00000-0  00000+0 0  5698
2 33558 010.5038 021.9954 6948700 257.1635 008.3412 02.22072400 72338
